[{"OBJECT_NAME":"OBJECT A","OBJECT_ID":"2023-104A","EPOCH":"2026-03-06T18:47:13.750656","MEAN_MOTION":15.33350758,"ECCENTRICITY":0.00093331,"INCLINATION":97.2792,"RA_OF_ASC_NODE":135.5625,"ARG_OF_PERICENTER":122.1915,"MEAN_ANOMALY":238.0234,"EPHEMERIS_TYPE":0,"CLASSIFICATION_TYPE":"U","NORAD_CAT_ID":57424,"ELEMENT_SET_NO":999,"REV_AT_EPOCH":14634,"BSTAR":0.00048200218,"MEAN_MOTION_DOT":0.00015492,"MEAN_MOTION_DDOT":0},{"OBJECT_NAME":"STARLINK-32130","OBJECT_ID":"2024-150C","EPOCH":"2026-03-09T22:07:52.765536","MEAN_MOTION":15.30187155,"ECCENTRICITY":9.705e-5,"INCLINATION":53.1606,"RA_OF_ASC_NODE":306.1857,"ARG_OF_PERICENTER":73.7092,"MEAN_ANOMALY":286.4015,"EPHEMERIS_TYPE":0,"CLASSIFICATION_TYPE":"U","NORAD_CAT_ID":60585,"ELEMENT_SET_NO":999,"REV_AT_EPOCH":8799,"BSTAR":3.235052e-5,"MEAN_MOTION_DOT":5.99e-6,"MEAN_MOTION_DDOT":0}]
