2023-104A               
1 57424U 23104A   26065.78279804  .00015492  00000+0  48200-3 0  9993
2 57424  97.2792 135.5625 0009333 122.1915 238.0234 15.33350758146346
STARLINK-32130          
1 60585U 24150C   26068.92213848  .00000599  00000+0  32351-4 0  9995
2 60585  53.1606 306.1857 0000970  73.7092 286.4015 15.30187154 87995
